NORAD_CAT_ID,OBJECT_NAME,OBJECT_TYPE,EPOCH,MEAN_MOTION,ECCENTRICITY,INCLINATION,RA_OF_ASC_NODE,ARG_OF_PERICENTER,MEAN_ANOMALY,BSTAR,MEAN_MOTION_DOT,MEAN_MOTION_DDOT,TLE_LINE0,TLE_LINE1,TLE_LINE2,SEMIMAJOR_AXIS,PERIOD,APOGEE,PERIGEE,DECAYED
55407.0,STARLINK-5019,PAYLOAD,2023-10-31 11:46:02,14.98330217,0.000319,70.0009,73.4189,272.1163,87.963,-9.5055e-05,-1.227e-05,0.0,0 STARLINK-5019,1 55407U 23014S   23304.49030735 -.00001227  00000-0 -95055-4 0  9996,2 55407  70.0009  73.4189 0003190 272.1163  87.9630 14.98330217 42261,6950.192,96.107,574.274,569.84,0.0
55407.0,STARLINK-5019,PAYLOAD,2023-10-31 14:58:18,14.98333706,0.000316,70.0003,73.0815,268.931,91.1487,-8.0827e-05,-1.057e-05,0.0,0 STARLINK-5019,1 55407U 23014S   23304.62382433 -.00001057  00000-0 -80827-4 0  9998,2 55407  70.0003  73.0815 0003160 268.9310  91.1487 14.98333706 43221,6950.181,96.107,574.243,569.85,0.0
55407.0,STARLINK-5019,PAYLOAD,2023-10-31 18:10:34,14.98334912,0.0003187,70.0006,72.745,269.8398,90.2395,-7.2788e-05,-9.62e-06,0.0,0 STARLINK-5019,1 55407U 23014S   23304.75734314 -.00000962  00000-0 -72788-4 0  9992,2 55407  70.0006  72.7450 0003187 269.8398  90.2395 14.98334912 43240,6950.178,96.107,574.258,569.828,0.0
55407.0,STARLINK-5019,PAYLOAD,2023-11-01 11:48:03,14.9832413,0.000315,70.0006,70.8937,269.9235,90.1563,6.6491e-05,7e-06,0.0,0 STARLINK-5019,1 55407U 23014S   23305.49170656  .00000700  00000-0  66491-4 0  9999,2 55407  70.0006  70.8937 0003150 269.9235  90.1563 14.98324130 42415,6950.211,96.107,574.265,569.887,0.0
55407.0,STARLINK-5019,PAYLOAD,2023-11-01 15:00:19,14.98325703,0.0002903,70.0007,70.5566,262.402,97.6809,0.00010215,1.126e-05,0.0,0 STARLINK-5019,1 55407U 23014S   23305.62522477  .00001126  00000-0  10215-3 0  9991,2 55407  70.0007  70.5566 0002903 262.4020  97.6809 14.98325703 43374,6950.206,96.107,574.089,570.054,0.0
55407.0,STARLINK-5019,PAYLOAD,2023-11-01 18:12:35,14.98327956,0.0003102,70.001,70.22,268.3923,91.688,7.8645e-05,8.45e-06,0.0,0 STARLINK-5019,1 55407U 23014S   23305.75874434  .00000845  00000-0  78645-4 0  9997,2 55407  70.0010  70.2200 0003102 268.3923  91.6880 14.98327956 43396,6950.199,96.107,574.22,569.908,0.0
55407.0,STARLINK-5019,PAYLOAD,2023-11-02 11:50:04,14.98328612,0.000308,70.0013,68.3691,269.8731,90.2075,1.1579e-05,4.5e-07,0.0,0 STARLINK-5019,1 55407U 23014S   23306.49310699  .00000045  00000-0  11579-4 0  9992,2 55407  70.0013  68.3691 0003080 269.8731  90.2075 14.98328612 42568,6950.197,96.107,574.203,569.922,0.0
55407.0,STARLINK-5019,PAYLOAD,2023-11-02 15:02:20,14.983337,0.0003192,70.0007,68.0326,267.5986,92.4807,7.052e-05,7.49e-06,0.0,0 STARLINK-5019,1 55407U 23014S   23306.62662185  .00000749  00000-0  70520-4 0  9999,2 55407  70.0007  68.0326 0003192 267.5986  92.4807 14.98333700 43522,6950.181,96.107,574.265,569.828,0.0
55407.0,STARLINK-5019,PAYLOAD,2023-11-02 18:14:36,14.98332866,0.0003019,70.0011,67.6968,264.3973,95.6842,6.7719e-05,7.15e-06,0.0,0 STARLINK-5019,1 55407U 23014S   23306.76014223  .00000715  00000-0  67719-4 0  9997,2 55407  70.0011  67.6968 0003019 264.3973  95.6842 14.98332866 43541,6950.184,96.107,574.147,569.951,0.0
55407.0,STARLINK-5019,PAYLOAD,2023-11-03 13:28:13,14.98335236,0.0002746,70.0015,65.6778,269.8766,90.2079,-0.0001455,-1.829e-05,0.0,0 STARLINK-5019,1 55407U 23014S   23307.56126641 -.00001829  00000-0 -14550-3 0  9997,2 55407  70.0015  65.6778 0002746 269.8766  90.2079 14.98335236 43668,6950.177,96.107,573.95,570.133,0.0
55407.0,STARLINK-5019,PAYLOAD,2023-11-03 18:16:37,14.9835348,0.0002434,70.0015,65.1721,257.5543,102.5344,-0.0004173,-5.071e-05,0.0,0 STARLINK-5019,1 55407U 23014S   23307.76154094 -.00005071  00000-0 -41730-3 0  9995,2 55407  70.0015  65.1721 0002434 257.5543 102.5344 14.98353480 42754,6950.12,96.105,573.677,570.294,0.0
55407.0,STARLINK-5019,PAYLOAD,2023-11-04 00:41:09,14.98346226,0.0003159,70.0014,64.4971,276.1773,83.9026,-0.00030633,-3.748e-05,0.0,0 STARLINK-5019,1 55407U 23014S   23308.02858269 -.00003748  00000-0 -30633-3 0  9999,2 55407  70.0014  64.4971 0003159 276.1773  83.9026 14.98346226 42792,6950.143,96.106,574.203,569.812,0.0
55407.0,STARLINK-5019,PAYLOAD,2023-11-04 10:17:58,14.98338481,0.0002606,70.0018,63.4884,272.3137,87.7724,-0.00021872,-2.702e-05,0.0,0 STARLINK-5019,1 55407U 23014S   23308.42914841 -.00002702  00000-0 -21872-3 0  9996,2 55407  70.0018  63.4884 0002606 272.3137  87.7724 14.98338481 42854,6950.167,96.106,573.843,570.22,0.0
55407.0,STARLINK-5019,PAYLOAD,2023-11-04 13:30:14,14.98338929,0.0002552,70.0017,63.1512,275.6814,84.4054,-0.00021713,-2.683e-05,0.0,0 STARLINK-5019,1 55407U 23014S   23308.56266793 -.00002683  00000-0 -21713-3 0  9999,2 55407  70.0017  63.1512 0002552 275.6814  84.4054 14.98338929 43810,6950.165,96.106,573.804,570.257,0.0
55407.0,STARLINK-5019,PAYLOAD,2023-11-04 18:18:37,14.98357506,0.000266,70.002,62.6464,274.4329,85.6526,-0.00044658,-5.421e-05,0.0,0 STARLINK-5019,1 55407U 23014S   23308.76293934 -.00005421  00000-0 -44658-3 0  9994,2 55407  70.0020  62.6464 0002660 274.4329  85.6526 14.98357506 42900,6950.108,96.105,573.822,570.124,0.0
55407.0,STARLINK-5019,PAYLOAD,2023-11-05 10:19:58,14.98335804,0.0003048,70.0013,60.9637,271.7237,88.3573,0.00011562,1.287e-05,0.0,0 STARLINK-5019,1 55407U 23014S   23309.43053836  .00001287  00000-0  11562-3 0  9996,2 55407  70.0013  60.9637 0003048 271.7237  88.3573 14.98335804 43005,6950.175,96.107,574.158,569.922,0.0
55407.0,STARLINK-5019,PAYLOAD,2023-11-05 13:32:14,14.98344327,0.0002839,70.0016,60.6272,269.3508,90.7326,7.6283e-05,8.18e-06,0.0,0 STARLINK-5019,1 55407U 23014S   23309.56405349  .00000818  00000-0  76283-4 0  9991,2 55407  70.0016  60.6272 0002839 269.3508  90.7326 14.98344327 43969,6950.149,96.106,573.987,570.04,0.0
55407.0,STARLINK-5019,PAYLOAD,2023-11-05 16:44:29,14.98345551,0.0002972,70.0017,60.2894,271.4503,88.6316,0.00023667,2.733e-05,0.0,0 STARLINK-5019,1 55407U 23014S   23309.69756722  .00002733  00000-0  23667-3 0  9994,2 55407  70.0017  60.2894 0002972 271.4503  88.6316 14.98345551 43047,6950.145,96.106,574.075,569.944,0.0
55407.0,STARLINK-5019,PAYLOAD,2023-11-06 11:58:06,14.98336579,0.0003148,70.0015,58.271,267.7316,92.3482,8.4069e-05,9.1e-06,0.0,0 STARLINK-5019,1 55407U 23014S   23310.49868942  .00000910  00000-0  84069-4 0  9991,2 55407  70.0015  58.2710 0003148 267.7316  92.3482 14.98336579 43164,6950.173,96.107,574.225,569.85,0.0
55407.0,STARLINK-5019,PAYLOAD,2023-11-06 13:34:14,14.98344105,0.000309,70.001,58.1012,268.0126,92.0679,0.00010893,1.207e-05,0.0,0 STARLINK-5019,1 55407U 23014S   23310.56544384  .00001207  00000-0  10893-3 0  9993,2 55407  70.0010  58.1012 0003090 268.0126  92.0679 14.98344105 44117,6950.149,96.106,574.162,569.867,0.0
55407.0,STARLINK-5019,PAYLOAD,2023-11-06 15:10:25,14.98297371,0.0003049,70.0011,57.9331,271.209,88.872,-0.00041351,-5.019e-05,0.0,0 STARLINK-5019,1 55407U 23014S   23310.63224531 -.00005019  00000-0 -41351-3 0  9990,2 55407  70.0011  57.9331 0003049 271.2090  88.8720 14.98297371 43187,6950.294,96.109,574.278,570.04,0.0
55407.0,STARLINK-5019,PAYLOAD,2023-11-07 00:47:14,14.98305562,0.0003372,70.0001,56.922,268.2159,91.8614,-0.00041271,-5.011e-05,0.0,0 STARLINK-5019,1 55407U 23014S   23311.03280466 -.00005011  00000-0 -41271-3 0  9997,2 55407  70.0001  56.9220 0003372 268.2159  91.8614 14.98305562 43248,6950.268,96.109,574.477,569.79,0.0
55407.0,STARLINK-5019,PAYLOAD,2023-11-07 12:00:10,14.9831553,0.0002818,70.0013,55.7462,272.5864,87.4972,-0.00026246,-3.222e-05,0.0,0 STARLINK-5019,1 55407U 23014S   23311.50012154 -.00003222  00000-0 -26246-3 0  9993,2 55407  70.0013  55.7462 0002818 272.5864  87.4972 14.98315530 43313,6950.238,96.108,574.061,570.144,0.0
55407.0,STARLINK-5019,PAYLOAD,2023-11-07 13:36:18,14.98321783,0.0002964,70.0006,55.5772,272.4476,87.6344,-0.00026065,-3.201e-05,0.0,0 STARLINK-5019,1 55407U 23014S   23311.56687786 -.00003201  00000-0 -26065-3 0  9994,2 55407  70.0006  55.5772 0002964 272.4476  87.6344 14.98321783 44264,6950.218,96.108,574.143,570.023,0.0
55407.0,STARLINK-5019,PAYLOAD,2023-11-07 16:48:34,14.98323389,0.0003094,70.0008,55.2412,273.0236,87.0569,-0.00023749,-2.925e-05,0.0,0 STARLINK-5019,1 55407U 23014S   23311.70039650 -.00002925  00000-0 -23749-3 0  9999,2 55407  70.0008  55.2412 0003094 273.0236  87.0569 14.98323389 43345,6950.213,96.107,574.229,569.928,0.0
55407.0,STARLINK-5019,PAYLOAD,2023-11-08 00:49:13,14.983319,0.0003713,70.0017,54.3985,268.5788,91.4945,-0.00016009,-2.003e-05,0.0,0 STARLINK-5019,1 55407U 23014S   23312.03418695 -.00002003  00000-0 -16009-3 0  9994,2 55407  70.0017  54.3985 0003713 268.5788  91.4945 14.98331900 43399,6950.187,96.107,574.633,569.471,0.0
55407.0,STARLINK-5019,PAYLOAD,2023-11-08 12:02:09,14.98335692,0.0003308,70.0008,53.2198,277.0546,83.0237,0.00014455,1.632e-05,0.0,0 STARLINK-5019,1 55407U 23014S   23312.50149972  .00001632  00000-0  14455-3 0  9993,2 55407  70.0008  53.2198 0003308 277.0546  83.0237 14.98335692 43461,6950.175,96.107,574.339,569.741,0.0
55407.0,STARLINK-5019,PAYLOAD,2023-11-08 13:38:17,14.98336096,0.0002908,70.0011,53.0521,267.7908,92.2918,6.9912e-06,-1e-07,0.0,0 STARLINK-5019,1 55407U 23014S   23312.56826313 -.00000010  00000-0  69912-5 0  9990,2 55407  70.0011  53.0521 0002908 267.7908  92.2918 14.98336096 44419,6950.174,96.107,574.06,570.018,0.0
55407.0,STARLINK-5019,PAYLOAD,2023-11-08 16:50:33,14.98343688,0.0003079,70.001,52.7152,272.8125,87.2682,8.4072e-05,9.11e-06,0.0,0 STARLINK-5019,1 55407U 23014S   23312.70177577  .00000911  00000-0  84072-4 0  9999,2 55407  70.0010  52.7152 0003079 272.8125  87.2682 14.98343688 44431,6950.151,96.106,574.156,569.876,0.0
55407.0,STARLINK-5019,PAYLOAD,2023-11-09 10:28:03,14.98325557,0.0002851,70.0012,50.8643,271.2696,88.8136,0.00022198,2.556e-05,0.0,0 STARLINK-5019,1 55407U 23014S   23313.43614782  .00002556  00000-0  22198-3 0  9991,2 55407  70.0012  50.8643 0002851 271.2696  88.8136 14.98325557 43604,6950.207,96.107,574.053,570.09,0.0
